{
  "type": "FeatureCollection",
  "features": [
    {
      "type": "Feature",
      "properties": {
        "norad_id": 41890,
        "name": "CYGFM07",
        "group": "weather",
        "lat": -33.610600563669315,
        "lon": -30.223645218634996,
        "alt_km": 420.0656796399735,
        "timestamp": "2025-12-09T14:52:25.808311+00:00",
        "meta_object_name": "CYGFM07",
        "meta_object_id": "2016-078G",
        "meta_epoch": "2025-12-09T05:55:17.418432",
        "meta_mean_motion": 15.49781338,
        "meta_eccentricity": 0.00095347,
        "meta_inclination": 34.9479,
        "meta_ra_of_asc_node": 44.352,
        "meta_arg_of_pericenter": 184.8004,
        "meta_mean_anomaly": 175.2628,
        "meta_ephemeris_type": 0,
        "meta_classification_type": "U",
        "meta_norad_cat_id": 41890,
        "meta_element_set_no": 999,
        "meta_rev_at_epoch": 49941,
        "meta_bstar": 0.00048302626,
        "meta_mean_motion_dot": 0.00027807,
        "meta_mean_motion_ddot": 0,
        "tle_line1": "1 41890U 16078G   25343.24672938  .00027807  00000+0  48303-3 0  9996",
        "tle_line2": "2 41890  34.9479  44.3520 0009534 184.8004 175.2628 15.49781338499411"
      },
      "geometry": {
        "type": "Point",
        "coordinates": [
          -30.223645218634996,
          -33.610600563669315
        ]
      }
    },
    {
      "type": "Feature",
      "properties": {
        "norad_id": 41891,
        "name": "CYGFM03",
        "group": "weather",
        "lat": 29.553209335925917,
        "lon": 169.52777144820112,
        "alt_km": 408.5615061373737,
        "timestamp": "2025-12-09T14:52:25.808322+00:00",
        "meta_object_name": "CYGFM03",
        "meta_object_id": "2016-078H",
        "meta_epoch": "2025-12-09T06:37:33.788928",
        "meta_mean_motion": 15.4968475,
        "meta_eccentricity": 0.00088446,
        "meta_inclination": 34.9435,
        "meta_ra_of_asc_node": 46.0758,
        "meta_arg_of_pericenter": 172.237,
        "meta_mean_anomaly": 187.849,
        "meta_ephemeris_type": 0,
        "meta_classification_type": "U",
        "meta_norad_cat_id": 41891,
        "meta_element_set_no": 999,
        "meta_rev_at_epoch": 49939,
        "meta_bstar": 0.00047892903,
        "meta_mean_motion_dot": 0.00027468,
        "meta_mean_motion_ddot": 0,
        "tle_line1": "1 41891U 16078H   25343.27608552  .00027468  00000+0  47893-3 0  9997",
        "tle_line2": "2 41891  34.9435  46.0758 0008844 172.2370 187.8490 15.49684750499399"
      },
      "geometry": {
        "type": "Point",
        "coordinates": [
          169.52777144820112,
          29.553209335925917
        ]
      }
    },
    {
      "type": "Feature",
      "properties": {
        "norad_id": 43010,
        "name": "FENGYUN 3D",
        "group": "weather",
        "lat": -80.98356170870755,
        "lon": 35.873419613436006,
        "alt_km": 833.6498744934916,
        "timestamp": "2025-12-09T14:52:25.808332+00:00",
        "meta_object_name": "FENGYUN 3D",
        "meta_object_id": "2017-072A",
        "meta_epoch": "2025-12-09T06:50:13.231104",
        "meta_mean_motion": 14.19682196,
        "meta_eccentricity": 7.44e-05,
        "meta_inclination": 98.9891,
        "meta_ra_of_asc_node": 309.5431,
        "meta_arg_of_pericenter": 192.1031,
        "meta_mean_anomaly": 168.0127,
        "meta_ephemeris_type": 0,
        "meta_classification_type": "U",
        "meta_norad_cat_id": 43010,
        "meta_element_set_no": 999,
        "meta_rev_at_epoch": 41804,
        "meta_bstar": 9.7830863e-05,
        "meta_mean_motion_dot": 1.61e-06,
        "meta_mean_motion_ddot": 0,
        "tle_line1": "1 43010U 17072A   25343.28487536  .00000161  00000+0  97831-4 0  9994",
        "tle_line2": "2 43010  98.9891 309.5431 0000744 192.1031 168.0127 14.19682196418040"
      },
      "geometry": {
        "type": "Point",
        "coordinates": [
          35.873419613436006,
          -80.98356170870755
        ]
      }
    },
    {
      "type": "Feature",
      "properties": {
        "norad_id": 43013,
        "name": "NOAA 20 (JPSS-1)",
        "group": "weather",
        "lat": 63.354404758529064,
        "lon": -97.94473065786502,
        "alt_km": 819.3691821023449,
        "timestamp": "2025-12-09T14:52:25.808344+00:00",
        "meta_object_name": "NOAA 20 (JPSS-1)",
        "meta_object_id": "2017-073A",
        "meta_epoch": "2025-12-09T06:06:42.273216",
        "meta_mean_motion": 14.19524316,
        "meta_eccentricity": 0.00021404,
        "meta_inclination": 98.7594,
        "meta_ra_of_asc_node": 279.5897,
        "meta_arg_of_pericenter": 92.3447,
        "meta_mean_anomaly": 267.7974,
        "meta_ephemeris_type": 0,
        "meta_classification_type": "U",
        "meta_norad_cat_id": 43013,
        "meta_element_set_no": 999,
        "meta_rev_at_epoch": 41752,
        "meta_bstar": 0.00010724168,
        "meta_mean_motion_dot": 1.82e-06,
        "meta_mean_motion_ddot": 0,
        "tle_line1": "1 43013U 17073A   25343.25465594  .00000182  00000+0  10724-3 0  9993",
        "tle_line2": "2 43013  98.7594 279.5897 0002140  92.3447 267.7974 14.19524316417525"
      },
      "geometry": {
        "type": "Point",
        "coordinates": [
          -97.94473065786502,
          63.354404758529064
        ]
      }
    },
    {
      "type": "Feature",
      "properties": {
        "norad_id": 43226,
        "name": "GOES 17",
        "group": "weather",
        "lat": 0.3627614475116491,
        "lon": -147.8173931547069,
        "alt_km": 35779.51498021649,
        "timestamp": "2025-12-09T14:52:25.808356+00:00",
        "meta_object_name": "GOES 17",
        "meta_object_id": "2018-022A",
        "meta_epoch": "2025-12-09T07:07:50.545920",
        "meta_mean_motion": 1.00271678,
        "meta_eccentricity": 0.00034092,
        "meta_inclination": 0.4511,
        "meta_ra_of_asc_node": 89.1652,
        "meta_arg_of_pericenter": 186.0646,
        "meta_mean_anomaly": 180.5247,
        "meta_ephemeris_type": 0,
        "meta_classification_type": "U",
        "meta_norad_cat_id": 43226,
        "meta_element_set_no": 999,
        "meta_rev_at_epoch": 2852,
        "meta_bstar": 0,
        "meta_mean_motion_dot": -1.8e-06,
        "meta_mean_motion_ddot": 0,
        "tle_line1": "1 43226U 18022A   25343.29711280 -.00000180  00000+0  00000+0 0  9995",
        "tle_line2": "2 43226   0.4511  89.1652 0003409 186.0646 180.5247  1.00271678 28524"
      },
      "geometry": {
        "type": "Point",
        "coordinates": [
          -147.8173931547069,
          0.3627614475116491
        ]
      }
    },
    {
      "type": "Feature",
      "properties": {
        "norad_id": 43491,
        "name": "FENGYUN 2H",
        "group": "weather",
        "lat": -2.1956165397436624,
        "lon": 21.124152074113283,
        "alt_km": 35795.43970226453,
        "timestamp": "2025-12-09T14:52:25.808369+00:00",
        "meta_object_name": "FENGYUN 2H",
        "meta_object_id": "2018-050A",
        "meta_epoch": "2025-12-09T01:58:00.442848",
        "meta_mean_motion": 1.00271088,
        "meta_eccentricity": 0.0002944,
        "meta_inclination": 2.5409,
        "meta_ra_of_asc_node": 81.3558,
        "meta_arg_of_pericenter": 164.2902,
        "meta_mean_anomaly": 301.2959,
        "meta_ephemeris_type": 0,
        "meta_classification_type": "U",
        "meta_norad_cat_id": 43491,
        "meta_element_set_no": 999,
        "meta_rev_at_epoch": 2753,
        "meta_bstar": 0,
        "meta_mean_motion_dot": -1.28e-06,
        "meta_mean_motion_ddot": 0,
        "tle_line1": "1 43491U 18050A   25343.08194957 -.00000128  00000+0  00000+0 0  9995",
        "tle_line2": "2 43491   2.5409  81.3558 0002944 164.2902 301.2959  1.00271088 27539"
      },
      "geometry": {
        "type": "Point",
        "coordinates": [
          21.124152074113283,
          -2.1956165397436624
        ]
      }
    },
    {
      "type": "Feature",
      "properties": {
        "norad_id": 43689,
        "name": "METOP-C",
        "group": "weather",
        "lat": -3.84507187447106,
        "lon": -139.15211770903963,
        "alt_km": 824.4265578673512,
        "timestamp": "2025-12-09T14:52:25.808381+00:00",
        "meta_object_name": "METOP-C",
        "meta_object_id": "2018-087A",
        "meta_epoch": "2025-12-09T07:15:17.848224",
        "meta_mean_motion": 14.21509994,
        "meta_eccentricity": 0.00014799,
        "meta_inclination": 98.6934,
        "meta_ra_of_asc_node": 41.1245,
        "meta_arg_of_pericenter": 48.2502,
        "meta_mean_anomaly": 311.8801,
        "meta_ephemeris_type": 0,
        "meta_classification_type": "U",
        "meta_norad_cat_id": 43689,
        "meta_element_set_no": 999,
        "meta_rev_at_epoch": 36785,
        "meta_bstar": 0.00014129661,
        "meta_mean_motion_dot": 2.66e-06,
        "meta_mean_motion_ddot": 0,
        "tle_line1": "1 43689U 18087A   25343.30228991  .00000266  00000+0  14130-3 0  9990",
        "tle_line2": "2 43689  98.6934  41.1245 0001479  48.2502 311.8801 14.21509994367855"
      },
      "geometry": {
        "type": "Point",
        "coordinates": [
          -139.15211770903963,
          -3.84507187447106
        ]
      }
    }
  ]
}